SUPERBIRD-C2            
1 33274U 08038A   25085.73100252 -.00000253  00000+0  00000+0 0  9997
2 33274   1.2026  87.0339 0001339 248.2930 256.1929  1.00272257101244
AMC-21                  
1 33275U 08038B   25085.72949757  .00000035  00000+0  00000+0 0  9995
2 33275   1.7889  86.0323 0002921 281.0613 315.0254  1.00271057 61002
INMARSAT 4-F3           
1 33278U 08039A   25085.53656045 -.00000140  00000+0  00000+0 0  9991
2 33278   3.9243  29.4321 0002777 341.7717 268.1668  1.00270851 60771
NIMIQ 4                 
1 33373U 08044A   25085.80944127 -.00000223  00000+0  00000+0 0  9996
2 33373   0.0083  97.0207 0002621 278.1501  18.7017  1.00267792 60354
GALAXY 19 (G-19)        
1 33376U 08045A   25085.59220256 -.00000142  00000+0  00000+0 0  9996
2 33376   0.0398 262.3386 0002802 113.0053 285.1100  1.00272836 60416
ASTRA 1M                
1 33436U 08057A   25085.87266812  .00000117  00000+0  00000+0 0  9996
2 33436   0.0448  67.8569 0002417 356.8208  93.2147  1.00273653 41259
EUTELSAT HOTBIRD 13C    
1 33459U 08065A   25086.18033196 -.00000102  00000+0  00000+0 0  9997
2 33459   1.7961  84.4117 0005025 265.3674 247.4887  1.00271569 59768
EXPRESS-AM44            
1 33595U 09007A   25086.10917697 -.00000090  00000+0  00000+0 0  9990
2 33595   2.3090  83.8911 0004160 278.2125 210.9851  1.00271556 59051
NSS-9                   
1 33749U 09008A   25086.14766497  .00000069  00000+0  00000+0 0  9991
2 33749   0.1069  75.9366 0002485 300.2327  44.8814  1.00272524 59080
TELSTAR 11N             
1 34111U 09009A   25085.39913296 -.00000253  00000+0  00000+0 0  9999
2 34111   0.0256 172.8415 0002343 187.0093 290.3782  1.00270131 41756
WGS F2 (USA 204)        
1 34713U 09017A   25086.12281719  .00000065  00000+0  00000+0 0  9996
2 34713   0.0225 190.1178 0000222   9.5589  86.8279  1.00267589 58458
SES-7 (PROTOSTAR 2)     
1 34941U 09027A   25085.91854433 -.00000348  00000+0  00000+0 0  9990
2 34941   0.0721  77.3829 0001116 245.6869 300.4456  1.00269081 58145
MEASAT-3A               
1 35362U 09032A   25085.84608562 -.00000114  00000+0  00000+0 0  9997
2 35362   0.0212 284.2367 0003339  86.4431 278.4311  1.00271460  3541
GOES 14                 
1 35491U 09033A   25085.58994367 -.00000070  00000+0  00000+0 0  9994
2 35491   0.5192  89.1030 0000259 163.7538  35.6015  1.00269246  2104
FM-5                    
1 35493U 09034A   25085.98933483 -.00000203  00000+0  00000+0 0  9991
2 35493   0.0283 261.8593 0002889 287.3477 265.4548  1.00269405 57494
TERRESTAR-1             
1 35496U 09035A   25085.51801115 -.00000056  00000+0  00000+0 0  9996
2 35496   4.8434  48.4638 0002540 313.4048 257.7952  1.00273063 57662
ASIASAT 5               
1 35696U 09042A   25085.91706737 -.00000310  00000+0  00000+0 0  9997
2 35696   0.0328 105.4198 0001638 244.1222 265.6602  1.00268684 57225
JCSAT-12 (JCSAT-RA)     
1 35755U 09044A   25085.92332275 -.00000332  00000+0  00000+0 0  9992
2 35755   0.0259 253.7177 0000752  91.2735 304.0373  1.00269794 57129
OPTUS D3                
1 35756U 09044B   25086.14236527 -.00000150  00000+0  00000+0 0  9999
2 35756   0.7400  85.6402 0005591 286.2397  20.1796  1.00270549 57152
NIMIQ 5                 
1 35873U 09050A   25085.74343832 -.00000260  00000+0  00000+0 0  9991
2 35873   0.0107 133.7240 0002582 235.6732   9.9571  1.00272512 56856
AMAZONAS 2              
1 35942U 09054A   25086.14697463 -.00000285  00000+0  00000+0 0  9996
2 35942   0.6542  89.6716 0003253 277.9434 169.3046  1.00268750 56692
COMSATBW-1              
1 35943U 09054B   25086.05244412  .00000020  00000+0  00000+0 0  9995
2 35943   0.0177 218.6004 0002966 166.8021 241.2430  1.00277282 56779
NSS-12                  
1 36032U 09058A   25085.89461362  .00000068  00000+0  00000+0 0  9997
2 36032   0.0170   1.2742 0003537 357.2476 205.1089  1.00270862 56431
THOR 6                  
1 36033U 09058B   25085.82553203 -.00000013  00000+0  00000+0 0  9998
2 36033   0.0096 152.6847 0001753 213.2815 114.8826  1.00271126 56486
INTELSAT 14 (IS-14)     
1 36097U 09064A   25085.81675712 -.00000277  00000+0  00000+0 0  9996
2 36097   0.0180 265.7901 0002781 119.7056  48.0212  1.00269000 56111
EUTELSAT 36B            
1 36101U 09065A   25085.89489140  .00000109  00000+0  00000+0 0  9992
2 36101   0.0769  31.6216 0006575 341.9307 183.6762  1.00272725 56329
INTELSAT 15 (IS-15)     
1 36106U 09067A   25085.85600334 -.00000188  00000+0  00000+0 0  9993
2 36106   0.0048  96.1168 0002260 278.0228 203.6928  1.00270058 36743
WGS F3 (USA 211)        
1 36108U 09068A   25086.16086334 -.00000334  00000+0  00000+0 0  9992
2 36108   0.2043  88.0411 0001356   1.2093 292.6192  0.99713650 56025
DIRECTV 12              
1 36131U 09075A   25086.11877421 -.00000106  00000+0  00000+0 0  9993
2 36131   0.0312  37.3829 0001045  20.5801  66.8754  1.00265883 55908
BEIDOU-2 G1             
1 36287U 10001A   25085.78216083 -.00000281  00000+0  00000+0 0  9993
2 36287   3.2498  60.4356 0004839 298.5894 247.4323  1.00267923 55686
RADUGA-1M 2             
1 36358U 10002A   25085.58985678  .00000048  00000+0  00000+0 0  9994
2 36358   2.4487  84.5092 0007389 250.2026 313.0291  0.98964201 45595
SDO                     
1 36395U 10005A   25085.51992251 -.00000044  00000+0  00000+0 0  9993
2 36395  33.7106  93.1927 0000969 213.4709 323.0006  1.00274156 55571
INTELSAT 16 (IS-16)     
1 36397U 10006A   25086.16764743 -.00000248  00000+0  00000+0 0  9997
2 36397   0.0195 187.9358 0001859 187.4683 153.5945  1.00269821 55232
EWS-G2 (GOES 15)        
1 36411U 10008A   25085.88458640  .00000035  00000+0  00000+0 0  9993
2 36411   0.1179  88.2815 0002873 195.1210 280.8834  1.00272016 55154
ECHOSTAR 14             
1 36499U 10010A   25085.87389911 -.00000003  00000+0  00000+0 0  9991
2 36499   0.0026 165.2917 0001917 198.5946  16.3742  1.00270803 42068
SES-1                   
1 36516U 10016A   25085.59142064 -.00000117  00000+0  00000+0 0  9998
2 36516   0.0352 292.1662 0002559  76.4064 287.6105  1.00271664 54543
ASTRA 3B                
1 36581U 10021A   25085.87266812  .00000134  00000+0  00000+0 0  9993
2 36581   0.3104  90.1966 0003299 287.5714 144.4440  1.00269529 54386
COMSATBW-2              
1 36582U 10021B   25085.82831220  .00000084  00000+0  00000+0 0  9994
2 36582   0.0489  94.6921 0001458 270.8634 130.2613  1.00271351 54472
BEIDOU-2 G3             
1 36590U 10024A   25085.91289711 -.00000135  00000+0  00000+0 0  9996
2 36590   3.4579  62.3387 0008874 328.7117 201.7892  1.00270524 54287
BADR-5                  
1 36592U 10025A   25085.86711326  .00000141  00000+0  00000+0 0  9991
2 36592   0.0428 126.3766 0001656 291.8256 104.4847  1.00270534 48735
COMS 1                  
1 36744U 10032A   25085.92245395 -.00000344  00000+0  00000+0 0  9999
2 36744   3.6556  81.1052 0001017 299.5228 264.2246  1.00271001 46608
ARABSAT-5A              
1 36745U 10032B   25085.86711326  .00000150  00000+0  00000+0 0  9999
2 36745   0.0556  30.5143 0004063 351.6196 145.0689  1.00274781 54162
ECHOSTAR 15             
1 36792U 10034A   25085.81326400 -.00000285  00000+0  00000+0 0  9993
2 36792   0.0192 139.5808 0002498 196.2203  79.8232  1.00271066 53913
BEIDOU-2 IGSO-1         
1 36828U 10036A   25085.49026877 -.00000128  00000+0  00000+0 0  9990
2 36828  54.2669 167.0128 0046050 211.4517  85.8987  1.00249049 53600
NILESAT 201             
1 36830U 10037A   25086.18137453 -.00000061  00000+0  00000+0 0  9990
2 36830   0.0179 198.7508 0002780 184.1983 220.2277  1.00273169 53805
RASCOM-QAF 1R           
1 36831U 10037B   25085.90044902  .00000016  00000+0  00000+0 0  9995
2 36831   0.0183 129.3693 0005946 234.6028 147.6511  1.00273602 53810
AEHF-1 (USA 214)        
1 36868U 10039A   25085.68875068  .00000152  00000+0  00000+0 0  9998
2 36868   7.0958  73.7670 0004103 293.4483  95.0743  1.00274977 49179
XM-5                    
1 37185U 10053A   25086.15991508 -.00000026  00000+0  00000+0 0  9999
2 37185   0.0295 264.4263 0001529 286.2959 296.4745  1.00271736 52963
BSAT-3B                 
1 37207U 10056B   25086.06174032 -.00000353  00000+0  00000+0 0  9995
2 37207   0.0348 226.3642 0001329  49.8929  40.5450  1.00269738 52794
BEIDOU-2 G4             
1 37210U 10057A   25085.86066782 -.00000113  00000+0  00000+0 0  9993
2 37210   2.5352  70.4341 0006425 207.1897  16.7607  1.00270851 52808
SKYTERRA 1              
1 37218U 10061A   25085.51992251 -.00000117  00000+0  00000+0 0  9991
2 37218   4.1815  50.2461 0001848 334.3054 245.5121  1.00270660 52709
HYLAS 1                 
1 37237U 10065A   25079.76173125  .00000159  00000+0  00000+0 0  9992
2 37237   4.4861  78.5566 0006583 331.4706  75.8785  1.00182093  2343
INTELSAT 17 (IS-17)     
1 37238U 10065B   25085.87456561 -.00000005  00000+0  00000+0 0  9991
2 37238   0.0150 200.9663 0002691 182.5078 181.9090  1.00271887 48763
BEIDOU-2 IGSO-2         
1 37256U 10068A   25085.52379652 -.00000168  00000+0  00000+0 0  9991
2 37256  48.3587 277.3589 0039511 211.1417 351.7559  1.00261660 52304
EUTELSAT KA-SAT 9A      
1 37258U 10069A   25086.18458910  .00000058  00000+0  00000+0 0  9999
2 37258   0.0831 290.2299 0003201 176.0422 154.0388  1.00268554 52333
HISPASAT 30W-5          
1 37264U 10070A   25085.81979793 -.00000219  00000+0  00000+0 0  9994
2 37264   0.0449 110.9366 0002948 279.2662  59.4175  1.00271968 48696
KOREASAT 6              
1 37265U 10070B   25085.84608562 -.00000115  00000+0  00000+0 0  9996
2 37265   0.0589  31.4540 0002343 350.6848 266.8559  1.00271042 52285
BEIDOU-2 IGSO-3         
1 37384U 11013A   25085.80754090 -.00000166  00000+0  00000+0 0  9996
2 37384  61.7748  44.3940 0030247 182.9026 355.6999  1.00286687 51165
INTELSAT 28 (IS-28)     
1 37392U 11016A   25086.10717872 -.00000183  00000+0  00000+0 0  9998
2 37392   0.6467  88.5337 0004013 278.0853 195.6777  1.00144896 51038
